<osm generator="OSMnx" version="1"><node changeset="1" id="53042661" lat="37.8726947" lon="-122.2707416" timestamp="2017-01-01T00:00:00Z" uid="1" user="osmnx" version="1"><tag k="highway" v="nan" /></node><node changeset="1" id="53042663" lat="37.8728362" lon="-122.2696086" timestamp="2017-01-01T00:00:00Z" uid="1" user="osmnx" version="1"><tag k="highway" v="nan" /></node><node changeset="1" id="53042665" lat="37.8730308" lon="-122.2684905" timestamp="2017-01-01T00:00:00Z" uid="1" user="osmnx" version="1"><tag k="highway" v="nan" /></node><node changeset="1" id="53055189" lat="37.8736107" lon="-122.2709149" timestamp="2017-01-01T00:00:00Z" uid="1" user="osmnx" version="1"><tag k="highway" v="traffic_signals" /></node><node changeset="1" id="53055191" lat="37.8737446" lon="-122.2697939" timestamp="2017-01-01T00:00:00Z" uid="1" user="osmnx" version="1"><tag k="highway" v="nan" /></node><node changeset="1" id="53055193" lat="37.8738795" lon="-122.2685366" timestamp="2017-01-01T00:00:00Z" uid="1" user="osmnx" version="1"><tag k="highway" v="traffic_signals" /></node><node changeset="1" id="53093347" lat="37.8744964" lon="-122.2710696" timestamp="2017-01-01T00:00:00Z" uid="1" user="osmnx" version="1"><tag k="highway" v="nan" /></node><node changeset="1" id="53096084" lat="37.872193" lon="-122.2684115" timestamp="2017-01-01T00:00:00Z" uid="1" user="osmnx" version="1"><tag k="highway" v="traffic_signals" /></node><node changeset="1" id="56856544" lat="37.8719052" lon="-122.270669" timestamp="2017-01-01T00:00:00Z" uid="1" user="osmnx" version="1"><tag k="highway" v="traffic_signals" /></node><node changeset="1" id="239616956" lat="37.8747886" lon="-122.2687534" timestamp="2017-01-01T00:00:00Z" uid="1" user="osmnx" version="1"><tag k="highway" v="nan" /></node><node changeset="1" id="239616965" lat="37.873865" lon="-122.2686517" timestamp="2017-01-01T00:00:00Z" uid="1" user="osmnx" version="1"><tag k="highway" v="traffic_signals" /></node><node changeset="1" id="240448956" lat="37.8718102" lon="-122.2707283" timestamp="2017-01-01T00:00:00Z" uid="1" user="osmnx" version="1"><tag k="highway" v="traffic_signals" /></node><node changeset="1" id="240448958" lat="37.8721008" lon="-122.2684084" timestamp="2017-01-01T00:00:00Z" uid="1" user="osmnx" version="1"><tag k="highway" v="traffic_signals" /></node><way changeset="1" id="0" timestamp="2017-01-01T00:00:00Z" uid="1" user="osmnx" version="1"><nd ref="53042661" /><nd ref="53042663" /><tag k="highway" v="residential" /><tag k="lanes" v="nan" /><tag k="maxspeed" v="nan" /><tag k="name" v="Berkeley Way" /><tag k="oneway" v="no" /></way><way changeset="1" id="1" timestamp="2017-01-01T00:00:00Z" uid="1" user="osmnx" version="1"><nd ref="53042661" /><nd ref="53055189" /><tag k="highway" v="residential" /><tag k="lanes" v="2" /><tag k="maxspeed" v="25 mph" /><tag k="name" v="Milvia Street" /><tag k="oneway" v="no" /></way><way changeset="1" id="10" timestamp="2017-01-01T00:00:00Z" uid="1" user="osmnx" version="1"><nd ref="53055189" /><nd ref="53055191" /><tag k="highway" v="tertiary" /><tag k="lanes" v="2" /><tag k="maxspeed" v="25 mph" /><tag k="name" v="Hearst Avenue" /><tag k="oneway" v="no" /></way><way changeset="1" id="11" timestamp="2017-01-01T00:00:00Z" uid="1" user="osmnx" version="1"><nd ref="53055189" /><nd ref="53042661" /><tag k="highway" v="residential" /><tag k="lanes" v="2" /><tag k="maxspeed" v="25 mph" /><tag k="name" v="Milvia Street" /><tag k="oneway" v="no" /></way><way changeset="1" id="12" timestamp="2017-01-01T00:00:00Z" uid="1" user="osmnx" version="1"><nd ref="53055191" /><nd ref="53042663" /><tag k="highway" v="residential" /><tag k="lanes" v="nan" /><tag k="maxspeed" v="25 mph" /><tag k="name" v="Henry Street" /><tag k="oneway" v="no" /></way><way changeset="1" id="13" timestamp="2017-01-01T00:00:00Z" uid="1" user="osmnx" version="1"><nd ref="53055191" /><nd ref="239616965" /><tag k="highway" v="tertiary" /><tag k="lanes" v="['2', '4']" /><tag k="maxspeed" v="25 mph" /><tag k="name" v="Hearst Avenue" /><tag k="oneway" v="no" /></way><way changeset="1" id="14" timestamp="2017-01-01T00:00:00Z" uid="1" user="osmnx" version="1"><nd ref="53055191" /><nd ref="53055189" /><tag k="highway" v="tertiary" /><tag k="lanes" v="2" /><tag k="maxspeed" v="25 mph" /><tag k="name" v="Hearst Avenue" /><tag k="oneway" v="no" /></way><way changeset="1" id="15" timestamp="2017-01-01T00:00:00Z" uid="1" user="osmnx" version="1"><nd ref="53055193" /><nd ref="239616965" /><tag k="highway" v="tertiary" /><tag k="lanes" v="4" /><tag k="maxspeed" v="25 mph" /><tag k="name" v="Hearst Avenue" /><tag k="oneway" v="no" /></way><way changeset="1" id="16" timestamp="2017-01-01T00:00:00Z" uid="1" user="osmnx" version="1"><nd ref="53093347" /><nd ref="239616956" /><tag k="highway" v="residential" /><tag k="lanes" v="nan" /><tag k="maxspeed" v="25 mph" /><tag k="name" v="Delaware Street" /><tag k="oneway" v="no" /></way><way changeset="1" id="17" timestamp="2017-01-01T00:00:00Z" uid="1" user="osmnx" version="1"><nd ref="53093347" /><nd ref="53055189" /><tag k="highway" v="residential" /><tag k="lanes" v="2" /><tag k="maxspeed" v="25 mph" /><tag k="name" v="Milvia Street" /><tag k="oneway" v="no" /></way><way changeset="1" id="18" timestamp="2017-01-01T00:00:00Z" uid="1" user="osmnx" version="1"><nd ref="53096084" /><nd ref="240448958" /><tag k="highway" v="secondary" /><tag k="lanes" v="nan" /><tag k="maxspeed" v="25 mph" /><tag k="name" v="Shattuck Avenue" /><tag k="oneway" v="no" /></way><way changeset="1" id="19" timestamp="2017-01-01T00:00:00Z" uid="1" user="osmnx" version="1"><nd ref="53096084" /><nd ref="53042665" /><tag k="highway" v="secondary" /><tag k="lanes" v="5" /><tag k="maxspeed" v="25 mph" /><tag k="name" v="Shattuck Avenue" /><tag k="oneway" v="no" /></way><way changeset="1" id="2" timestamp="2017-01-01T00:00:00Z" uid="1" user="osmnx" version="1"><nd ref="53042661" /><nd ref="56856544" /><tag k="highway" v="residential" /><tag k="lanes" v="2" /><tag k="maxspeed" v="25 mph" /><tag k="name" v="Milvia Street" /><tag k="oneway" v="no" /></way><way changeset="1" id="20" timestamp="2017-01-01T00:00:00Z" uid="1" user="osmnx" version="1"><nd ref="53096084" /><nd ref="56856544" /><tag k="highway" v="secondary" /><tag k="lanes" v="2" /><tag k="maxspeed" v="25 mph" /><tag k="name" v="University Avenue" /><tag k="oneway" v="yes" /></way><way changeset="1" id="21" timestamp="2017-01-01T00:00:00Z" uid="1" user="osmnx" version="1"><nd ref="56856544" /><nd ref="240448956" /><tag k="highway" v="residential" /><tag k="lanes" v="2" /><tag k="maxspeed" v="25 mph" /><tag k="name" v="Milvia Street" /><tag k="oneway" v="no" /></way><way changeset="1" id="22" timestamp="2017-01-01T00:00:00Z" uid="1" user="osmnx" version="1"><nd ref="56856544" /><nd ref="53042661" /><tag k="highway" v="residential" /><tag k="lanes" v="2" /><tag k="maxspeed" v="25 mph" /><tag k="name" v="Milvia Street" /><tag k="oneway" v="no" /></way><way changeset="1" id="23" timestamp="2017-01-01T00:00:00Z" uid="1" user="osmnx" version="1"><nd ref="239616956" /><nd ref="53093347" /><tag k="highway" v="residential" /><tag k="lanes" v="nan" /><tag k="maxspeed" v="25 mph" /><tag k="name" v="Delaware Street" /><tag k="oneway" v="no" /></way><way changeset="1" id="24" timestamp="2017-01-01T00:00:00Z" uid="1" user="osmnx" version="1"><nd ref="239616956" /><nd ref="239616965" /><tag k="highway" v="secondary" /><tag k="lanes" v="['3', '2']" /><tag k="maxspeed" v="25 mph" /><tag k="name" v="Shattuck Avenue" /><tag k="oneway" v="yes" /></way><way changeset="1" id="25" timestamp="2017-01-01T00:00:00Z" uid="1" user="osmnx" version="1"><nd ref="239616965" /><nd ref="53055193" /><tag k="highway" v="tertiary" /><tag k="lanes" v="4" /><tag k="maxspeed" v="25 mph" /><tag k="name" v="Hearst Avenue" /><tag k="oneway" v="no" /></way><way changeset="1" id="26" timestamp="2017-01-01T00:00:00Z" uid="1" user="osmnx" version="1"><nd ref="239616965" /><nd ref="53055191" /><tag k="highway" v="tertiary" /><tag k="lanes" v="['2', '4']" /><tag k="maxspeed" v="25 mph" /><tag k="name" v="Hearst Avenue" /><tag k="oneway" v="no" /></way><way changeset="1" id="27" timestamp="2017-01-01T00:00:00Z" uid="1" user="osmnx" version="1"><nd ref="239616965" /><nd ref="53042665" /><tag k="highway" v="secondary" /><tag k="lanes" v="['3', '2']" /><tag k="maxspeed" v="25 mph" /><tag k="name" v="Shattuck Avenue" /><tag k="oneway" v="yes" /></way><way changeset="1" id="28" timestamp="2017-01-01T00:00:00Z" uid="1" user="osmnx" version="1"><nd ref="240448956" /><nd ref="56856544" /><tag k="highway" v="residential" /><tag k="lanes" v="2" /><tag k="maxspeed" v="25 mph" /><tag k="name" v="Milvia Street" /><tag k="oneway" v="no" /></way><way changeset="1" id="29" timestamp="2017-01-01T00:00:00Z" uid="1" user="osmnx" version="1"><nd ref="240448956" /><nd ref="240448958" /><tag k="highway" v="secondary" /><tag k="lanes" v="['3', '2']" /><tag k="maxspeed" v="25 mph" /><tag k="name" v="University Avenue" /><tag k="oneway" v="yes" /></way><way changeset="1" id="3" timestamp="2017-01-01T00:00:00Z" uid="1" user="osmnx" version="1"><nd ref="53042663" /><nd ref="53055191" /><tag k="highway" v="residential" /><tag k="lanes" v="nan" /><tag k="maxspeed" v="25 mph" /><tag k="name" v="Henry Street" /><tag k="oneway" v="no" /></way><way changeset="1" id="30" timestamp="2017-01-01T00:00:00Z" uid="1" user="osmnx" version="1"><nd ref="240448958" /><nd ref="53096084" /><tag k="highway" v="secondary" /><tag k="lanes" v="nan" /><tag k="maxspeed" v="25 mph" /><tag k="name" v="Shattuck Avenue" /><tag k="oneway" v="no" /></way><way changeset="1" id="4" timestamp="2017-01-01T00:00:00Z" uid="1" user="osmnx" version="1"><nd ref="53042663" /><nd ref="53042665" /><tag k="highway" v="residential" /><tag k="lanes" v="nan" /><tag k="maxspeed" v="nan" /><tag k="name" v="Berkeley Way" /><tag k="oneway" v="no" /></way><way changeset="1" id="5" timestamp="2017-01-01T00:00:00Z" uid="1" user="osmnx" version="1"><nd ref="53042663" /><nd ref="53042661" /><tag k="highway" v="residential" /><tag k="lanes" v="nan" /><tag k="maxspeed" v="nan" /><tag k="name" v="Berkeley Way" /><tag k="oneway" v="no" /></way><way changeset="1" id="6" timestamp="2017-01-01T00:00:00Z" uid="1" user="osmnx" version="1"><nd ref="53042665" /><nd ref="53055193" /><tag k="highway" v="secondary" /><tag k="lanes" v="['3', '2']" /><tag k="maxspeed" v="25 mph" /><tag k="name" v="Shattuck Avenue" /><tag k="oneway" v="yes" /></way><way changeset="1" id="7" timestamp="2017-01-01T00:00:00Z" uid="1" user="osmnx" version="1"><nd ref="53042665" /><nd ref="53096084" /><tag k="highway" v="secondary" /><tag k="lanes" v="5" /><tag k="maxspeed" v="25 mph" /><tag k="name" v="Shattuck Avenue" /><tag k="oneway" v="no" /></way><way changeset="1" id="8" timestamp="2017-01-01T00:00:00Z" uid="1" user="osmnx" version="1"><nd ref="53042665" /><nd ref="53042663" /><tag k="highway" v="residential" /><tag k="lanes" v="nan" /><tag k="maxspeed" v="nan" /><tag k="name" v="Berkeley Way" /><tag k="oneway" v="no" /></way><way changeset="1" id="9" timestamp="2017-01-01T00:00:00Z" uid="1" user="osmnx" version="1"><nd ref="53055189" /><nd ref="53093347" /><tag k="highway" v="residential" /><tag k="lanes" v="2" /><tag k="maxspeed" v="25 mph" /><tag k="name" v="Milvia Street" /><tag k="oneway" v="no" /></way></osm>